STARLINK-2401           
1 47818U 21018AH  25228.34013541 -.00001657  00000+0 -92377-4 0  9992
2 47818  53.0536  98.9343 0001433  91.0562 269.0591 15.06400160245233
STARLINK-2402           
1 47819U 21018AJ  25228.33775224  .00002094  00000+0  15945-3 0  9994
2 47819  53.0533  93.4696 0001217  89.2938 270.8190 15.06396702245318
STARLINK-2406           
1 47821U 21018AL  25227.90006691  .00000283  00000+0  37882-4 0  9997
2 47821  53.0554  95.4570 0001386 100.1917 259.9228 15.06411954245243
STARLINK-2407           
1 47822U 21018AM  25227.90925870  .00005297  00000+0  37417-3 0  9990
2 47822  53.0544 105.3982 0001723  96.8265 263.2920 15.06406240245444
STARLINK-2408           
1 47823U 21018AN  25228.32300206  .00000290  00000+0  38340-4 0  9993
2 47823  53.0521  93.5341 0001243  91.3768 268.7363 15.06404326245301
STARLINK-2409           
1 47824U 21018AP  25227.91480930  .00008879  00000+0  61412-3 0  9997
2 47824  53.0535  95.3760 0001450  89.4090 270.7065 15.06406946245579
STARLINK-2410           
1 47825U 21018AQ  25228.33132228 -.00001179  00000+0 -60244-4 0  9990
2 47825  53.0529  93.5080 0001237  95.4772 264.6358 15.06399643245308
STARLINK-2411           
1 47826U 21018AR  25228.32763374 -.00001391  00000+0 -74466-4 0  9999
2 47826  53.0550  93.5280 0001193  91.3765 268.7361 15.06405908245304
STARLINK-2413           
1 47827U 21018AS  25228.31016065 -.00000652  00000+0 -24897-4 0  9999
2 47827  53.0561  83.8477 0001400  92.9185 267.1964 15.06402410245443
STARLINK-2415           
1 47828U 21018AT  25227.91388957  .00000301  00000+0  39067-4 0  9991
2 47828  53.0542 105.3863 0001265  99.0496 261.0636 15.06405391245444
STARLINK-2419           
1 47830U 21018AV  25228.06132455  .00000166  00000+0  30004-4 0  9992
2 47830  53.0540 104.7213 0001395  88.1333 271.9816 15.06407780245129
STARLINK-2420           
1 47831U 21018AW  25227.86275040  .00001960  00000+0  15043-3 0  9996
2 47831  53.0533  80.6096 0001378  98.2508 261.8637 15.06405188245444
STARLINK-2422           
1 47832U 21018AX  25228.34975166  .00000232  00000+0  34460-4 0  9993
2 47832  53.0536  93.4262 0001344  89.6096 270.5047 15.06389937245315
STARLINK-2423           
1 47833U 21018AY  25228.04381488  .00001547  00000+0  12268-3 0  9990
2 47833  53.0549  94.7995 0001581  99.3979 260.7189 15.06413314245267
STARLINK-2424           
1 47834U 21018AZ  25228.32025713  .00000014  00000+0  19789-4 0  9992
2 47834  53.0539  93.5588 0000609  82.7772 277.3287 15.06412428245302
STARLINK-2426           
1 47836U 21018BB  25227.94062984  .00001390  00000+0  11220-3 0  9991
2 47836  53.0539  95.3532 0001564  99.1680 260.9486 15.06401558245585
STARLINK-2427           
1 47837U 21018BC  25228.28156491 -.00000605  00000+0 -21727-4 0  9991
2 47837  53.0550  73.7347 0001352  93.5513 266.5630 15.06402671245581
