[{"OBJECT_NAME":"STARLINK-2401","OBJECT_ID":"2021-018AH","EPOCH":"2025-08-16T08:09:47.699424","MEAN_MOTION":15.0640016,"ECCENTRICITY":0.0001433,"INCLINATION":53.0536,"RA_OF_ASC_NODE":98.9343,"ARG_OF_PERICENTER":91.0562,"MEAN_ANOMALY":269.0591,"EPHEMERIS_TYPE":0,"CLASSIFICATION_TYPE":"U","NORAD_CAT_ID":47818,"ELEMENT_SET_NO":999,"REV_AT_EPOCH":24523,"BSTAR":-9.2377e-5,"MEAN_MOTION_DOT":-1.657e-5,"MEAN_MOTION_DDOT":0},{"OBJECT_NAME":"STARLINK-2402","OBJECT_ID":"2021-018AJ","EPOCH":"2025-08-16T08:06:21.793536","MEAN_MOTION":15.06396702,"ECCENTRICITY":0.0001217,"INCLINATION":53.0533,"RA_OF_ASC_NODE":93.4696,"ARG_OF_PERICENTER":89.2938,"MEAN_ANOMALY":270.819,"EPHEMERIS_TYPE":0,"CLASSIFICATION_TYPE":"U","NORAD_CAT_ID":47819,"ELEMENT_SET_NO":999,"REV_AT_EPOCH":24531,"BSTAR":0.00015945,"MEAN_MOTION_DOT":2.094e-5,"MEAN_MOTION_DDOT":0},{"OBJECT_NAME":"STARLINK-2406","OBJECT_ID":"2021-018AL","EPOCH":"2025-08-15T21:36:05.781024","MEAN_MOTION":15.06411954,"ECCENTRICITY":0.0001386,"INCLINATION":53.0554,"RA_OF_ASC_NODE":95.457,"ARG_OF_PERICENTER":100.1917,"MEAN_ANOMALY":259.9228,"EPHEMERIS_TYPE":0,"CLASSIFICATION_TYPE":"U","NORAD_CAT_ID":47821,"ELEMENT_SET_NO":999,"REV_AT_EPOCH":24524,"BSTAR":3.7882e-5,"MEAN_MOTION_DOT":2.83e-6,"MEAN_MOTION_DDOT":0},{"OBJECT_NAME":"STARLINK-2407","OBJECT_ID":"2021-018AM","EPOCH":"2025-08-15T21:49:19.951680","MEAN_MOTION":15.0640624,"ECCENTRICITY":0.0001723,"INCLINATION":53.0544,"RA_OF_ASC_NODE":105.3982,"ARG_OF_PERICENTER":96.8265,"MEAN_ANOMALY":263.292,"EPHEMERIS_TYPE":0,"CLASSIFICATION_TYPE":"U","NORAD_CAT_ID":47822,"ELEMENT_SET_NO":999,"REV_AT_EPOCH":24544,"BSTAR":0.00037417,"MEAN_MOTION_DOT":5.297e-5,"MEAN_MOTION_DDOT":0},{"OBJECT_NAME":"STARLINK-2408","OBJECT_ID":"2021-018AN","EPOCH":"2025-08-16T07:45:07.377984","MEAN_MOTION":15.06404326,"ECCENTRICITY":0.0001243,"INCLINATION":53.0521,"RA_OF_ASC_NODE":93.5341,"ARG_OF_PERICENTER":91.3768,"MEAN_ANOMALY":268.7363,"EPHEMERIS_TYPE":0,"CLASSIFICATION_TYPE":"U","NORAD_CAT_ID":47823,"ELEMENT_SET_NO":999,"REV_AT_EPOCH":24530,"BSTAR":3.834e-5,"MEAN_MOTION_DOT":2.9e-6,"MEAN_MOTION_DDOT":0},{"OBJECT_NAME":"STARLINK-2409","OBJECT_ID":"2021-018AP","EPOCH":"2025-08-15T21:57:19.523520","MEAN_MOTION":15.06406946,"ECCENTRICITY":0.000145,"INCLINATION":53.0535,"RA_OF_ASC_NODE":95.376,"ARG_OF_PERICENTER":89.409,"MEAN_ANOMALY":270.7065,"EPHEMERIS_TYPE":0,"CLASSIFICATION_TYPE":"U","NORAD_CAT_ID":47824,"ELEMENT_SET_NO":999,"REV_AT_EPOCH":24557,"BSTAR":0.00061412,"MEAN_MOTION_DOT":8.879e-5,"MEAN_MOTION_DDOT":0},{"OBJECT_NAME":"STARLINK-2410","OBJECT_ID":"2021-018AQ","EPOCH":"2025-08-16T07:57:06.244992","MEAN_MOTION":15.06399643,"ECCENTRICITY":0.0001237,"INCLINATION":53.0529,"RA_OF_ASC_NODE":93.508,"ARG_OF_PERICENTER":95.4772,"MEAN_ANOMALY":264.6358,"EPHEMERIS_TYPE":0,"CLASSIFICATION_TYPE":"U","NORAD_CAT_ID":47825,"ELEMENT_SET_NO":999,"REV_AT_EPOCH":24530,"BSTAR":-6.0244e-5,"MEAN_MOTION_DOT":-1.179e-5,"MEAN_MOTION_DDOT":0},{"OBJECT_NAME":"STARLINK-2411","OBJECT_ID":"2021-018AR","EPOCH":"2025-08-16T07:51:47.555136","MEAN_MOTION":15.06405908,"ECCENTRICITY":0.0001193,"INCLINATION":53.055,"RA_OF_ASC_NODE":93.528,"ARG_OF_PERICENTER":91.3765,"MEAN_ANOMALY":268.7361,"EPHEMERIS_TYPE":0,"CLASSIFICATION_TYPE":"U","NORAD_CAT_ID":47826,"ELEMENT_SET_NO":999,"REV_AT_EPOCH":24530,"BSTAR":-7.4466e-5,"MEAN_MOTION_DOT":-1.391e-5,"MEAN_MOTION_DDOT":0},{"OBJECT_NAME":"STARLINK-2413","OBJECT_ID":"2021-018AS","EPOCH":"2025-08-16T07:26:37.880160","MEAN_MOTION":15.0640241,"ECCENTRICITY":0.00014,"INCLINATION":53.0561,"RA_OF_ASC_NODE":83.8477,"ARG_OF_PERICENTER":92.9185,"MEAN_ANOMALY":267.1964,"EPHEMERIS_TYPE":0,"CLASSIFICATION_TYPE":"U","NORAD_CAT_ID":47827,"ELEMENT_SET_NO":999,"REV_AT_EPOCH":24544,"BSTAR":-2.4897e-5,"MEAN_MOTION_DOT":-6.52e-6,"MEAN_MOTION_DDOT":0},{"OBJECT_NAME":"STARLINK-2415","OBJECT_ID":"2021-018AT","EPOCH":"2025-08-15T21:56:00.058848","MEAN_MOTION":15.06405391,"ECCENTRICITY":0.0001265,"INCLINATION":53.0542,"RA_OF_ASC_NODE":105.3863,"ARG_OF_PERICENTER":99.0496,"MEAN_ANOMALY":261.0636,"EPHEMERIS_TYPE":0,"CLASSIFICATION_TYPE":"U","NORAD_CAT_ID":47828,"ELEMENT_SET_NO":999,"REV_AT_EPOCH":24544,"BSTAR":3.9067e-5,"MEAN_MOTION_DOT":3.01e-6,"MEAN_MOTION_DDOT":0},{"OBJECT_NAME":"STARLINK-2419","OBJECT_ID":"2021-018AV","EPOCH":"2025-08-16T01:28:18.441120","MEAN_MOTION":15.0640778,"ECCENTRICITY":0.0001395,"INCLINATION":53.054,"RA_OF_ASC_NODE":104.7213,"ARG_OF_PERICENTER":88.1333,"MEAN_ANOMALY":271.9816,"EPHEMERIS_TYPE":0,"CLASSIFICATION_TYPE":"U","NORAD_CAT_ID":47830,"ELEMENT_SET_NO":999,"REV_AT_EPOCH":24512,"BSTAR":3.0004e-5,"MEAN_MOTION_DOT":1.66e-6,"MEAN_MOTION_DDOT":0},{"OBJECT_NAME":"STARLINK-2420","OBJECT_ID":"2021-018AW","EPOCH":"2025-08-15T20:42:21.634560","MEAN_MOTION":15.06405188,"ECCENTRICITY":0.0001378,"INCLINATION":53.0533,"RA_OF_ASC_NODE":80.6096,"ARG_OF_PERICENTER":98.2508,"MEAN_ANOMALY":261.8637,"EPHEMERIS_TYPE":0,"CLASSIFICATION_TYPE":"U","NORAD_CAT_ID":47831,"ELEMENT_SET_NO":999,"REV_AT_EPOCH":24544,"BSTAR":0.00015043,"MEAN_MOTION_DOT":1.96e-5,"MEAN_MOTION_DDOT":0},{"OBJECT_NAME":"STARLINK-2422","OBJECT_ID":"2021-018AX","EPOCH":"2025-08-16T08:23:38.543424","MEAN_MOTION":15.06389937,"ECCENTRICITY":0.0001344,"INCLINATION":53.0536,"RA_OF_ASC_NODE":93.4262,"ARG_OF_PERICENTER":89.6096,"MEAN_ANOMALY":270.5047,"EPHEMERIS_TYPE":0,"CLASSIFICATION_TYPE":"U","NORAD_CAT_ID":47832,"ELEMENT_SET_NO":999,"REV_AT_EPOCH":24531,"BSTAR":3.446e-5,"MEAN_MOTION_DOT":2.32e-6,"MEAN_MOTION_DDOT":0},{"OBJECT_NAME":"STARLINK-2423","OBJECT_ID":"2021-018AY","EPOCH":"2025-08-16T01:03:05.605632","MEAN_MOTION":15.06413314,"ECCENTRICITY":0.0001581,"INCLINATION":53.0549,"RA_OF_ASC_NODE":94.7995,"ARG_OF_PERICENTER":99.3979,"MEAN_ANOMALY":260.7189,"EPHEMERIS_TYPE":0,"CLASSIFICATION_TYPE":"U","NORAD_CAT_ID":47833,"ELEMENT_SET_NO":999,"REV_AT_EPOCH":24526,"BSTAR":0.00012268,"MEAN_MOTION_DOT":1.547e-5,"MEAN_MOTION_DDOT":0},{"OBJECT_NAME":"STARLINK-2424","OBJECT_ID":"2021-018AZ","EPOCH":"2025-08-16T07:41:10.216032","MEAN_MOTION":15.06412428,"ECCENTRICITY":6.09e-5,"INCLINATION":53.0539,"RA_OF_ASC_NODE":93.5588,"ARG_OF_PERICENTER":82.7772,"MEAN_ANOMALY":277.3287,"EPHEMERIS_TYPE":0,"CLASSIFICATION_TYPE":"U","NORAD_CAT_ID":47834,"ELEMENT_SET_NO":999,"REV_AT_EPOCH":24530,"BSTAR":1.9789e-5,"MEAN_MOTION_DOT":1.4e-7,"MEAN_MOTION_DDOT":0},{"OBJECT_NAME":"STARLINK-2426","OBJECT_ID":"2021-018BB","EPOCH":"2025-08-15T22:34:30.418176","MEAN_MOTION":15.06401558,"ECCENTRICITY":0.0001564,"INCLINATION":53.0539,"RA_OF_ASC_NODE":95.3532,"ARG_OF_PERICENTER":99.168,"MEAN_ANOMALY":260.9486,"EPHEMERIS_TYPE":0,"CLASSIFICATION_TYPE":"U","NORAD_CAT_ID":47836,"ELEMENT_SET_NO":999,"REV_AT_EPOCH":24558,"BSTAR":0.0001122,"MEAN_MOTION_DOT":1.39e-5,"MEAN_MOTION_DDOT":0},{"OBJECT_NAME":"STARLINK-2427","OBJECT_ID":"2021-018BC","EPOCH":"2025-08-16T06:45:27.208224","MEAN_MOTION":15.06402671,"ECCENTRICITY":0.0001352,"INCLINATION":53.055,"RA_OF_ASC_NODE":73.7347,"ARG_OF_PERICENTER":93.5513,"MEAN_ANOMALY":266.563,"EPHEMERIS_TYPE":0,"CLASSIFICATION_TYPE":"U","NORAD_CAT_ID":47837,"ELEMENT_SET_NO":999,"REV_AT_EPOCH":24558,"BSTAR":-2.1727e-5,"MEAN_MOTION_DOT":-6.05e-6,"MEAN_MOTION_DDOT":0}]
